NORAD_CAT_ID,OBJECT_NAME,OBJECT_TYPE,EPOCH,MEAN_MOTION,ECCENTRICITY,INCLINATION,RA_OF_ASC_NODE,ARG_OF_PERICENTER,MEAN_ANOMALY,BSTAR,MEAN_MOTION_DOT,MEAN_MOTION_DDOT,TLE_LINE0,TLE_LINE1,TLE_LINE2,SEMIMAJOR_AXIS,PERIOD,APOGEE,PERIGEE,DECAYED
52136.0,STARLINK-3720,PAYLOAD,2022-06-03 01:41:52,15.55352875,0.0001227,53.2134,129.4607,74.3775,285.7373,-0.0031532,-0.00212751,0.0,0 STARLINK-3720,1 52136U 22029BA  22154.07074481 -.00212751  00000-0 -31532-2 0  9993,2 52136  53.2134 129.4607 0001227  74.3775 285.7373 15.55352875 13185,6779.264,92.583,401.961,400.297,0.0
52136.0,STARLINK-3720,PAYLOAD,2022-06-03 14:02:40,15.54806327,0.0001478,53.2131,126.9881,67.9632,292.1537,-0.0029939,-0.00198368,0.0,0 STARLINK-3720,1 52136U 22029BA  22154.58518750 -.00198368  00000-0 -29939-2 0  9996,2 52136  53.2131 126.9881 0001478  67.9632 292.1537 15.54806327 13264,6780.853,92.616,403.72,401.715,0.0
52136.0,STARLINK-3720,PAYLOAD,2022-06-04 02:23:16,15.54537402,0.0001549,53.2136,124.514,271.3356,88.7478,-0.0019538,-0.00129457,0.0,0 STARLINK-3720,1 52136U 22029BA  22155.09950208 -.00129457  00000-0 -19538-2 0  9998,2 52136  53.2136 124.5140 0001549 271.3356  88.7478 15.54537402 13341,6781.635,92.632,404.55,402.449,0.0
52136.0,STARLINK-3720,PAYLOAD,2022-06-04 07:00:24,15.54936325,0.0005527,53.2137,123.5829,315.4064,44.6503,-0.00038695,-0.0002676,0.0,0 STARLINK-3720,1 52136U 22029BA  22155.29194625 -.00026760  00000-0 -38695-3 0  9992,2 52136  53.2137 123.5829 0005527 315.4064  44.6503 15.54936325 13371,6780.475,92.608,406.087,398.592,0.0
52136.0,STARLINK-3720,PAYLOAD,2022-06-05 22:00:00,15.49886023,0.0001269,53.2174,115.8376,61.9091,8.774,-3.3634e-06,-6.42e-06,0.0,0 STARLINK-3720,1 52136U 22029BA  22156.91667824 -.00000642  00000-0 -33634-5 0  9999,2 52136  53.2174 115.8376 0001269  61.9091   8.7740 15.49886023 13620,6795.196,92.91,417.924,416.199,0.0
52136.0,STARLINK-3720,PAYLOAD,2022-06-06 04:00:00,15.49919679,0.0001706999999999,53.2158,114.6364,71.1476,315.3105,-0.0001173,-7.112e-05,0.0,0 STARLINK-3720,1 52136U 22029BA  22157.16667824 -.00007112  00000-0 -11730-3 0  9997,2 52136  53.2158 114.6364 0001707  71.1476 315.3105 15.49919679 13663,6795.098000000001,92.908,418.12300000000016,415.80300000000005,0.0
52136.0,STARLINK-3720,PAYLOAD,2022-06-06 14:00:01,15.49997019,0.000157,53.2163,112.6455,76.60300000000002,116.0232,-0.0032266,-0.00180149,0.0,0 STARLINK-3720,1 52136U 22029BA  22157.58334491 -.00180149  00000-0 -32266-2 0  9992,2 52136  53.2163 112.6455 0001570  76.6030 116.0232 15.49997019  1301,6794.871999999999,92.903,417.804,415.67,0.0
52136.0,STARLINK-3720,PAYLOAD,2022-06-06 22:00:00,15.49709526,0.0001423,53.2169,111.0552,69.3575,184.2903,-0.0049446,-0.00269955,0.0,0 STARLINK-3720,1 52136U 22029BA  22157.91667824 -.00269955  00000-0 -49446-2 0  9999,2 52136  53.2169 111.0552 0001423  69.3575 184.2903 15.49709526 13789,6795.712,92.921,418.544,416.61,0.0
52136.0,STARLINK-3720,PAYLOAD,2022-06-07 06:00:00,15.49595975,0.0001277,53.2177,109.4694,63.8116,250.4228,-0.013883,-0.00722125,0.0,0 STARLINK-3720,1 52136U 22029BA  22158.25001157 -.00722125  00000-0 -13883-1 0  9996,2 52136  53.2177 109.4694 0001277  63.8116 250.4228 15.49595975 13836,6796.044,92.927,418.777,417.041,0.0
52136.0,STARLINK-3720,PAYLOAD,2022-06-07 14:00:01,15.49085986,0.0001069,53.2176,107.8772,76.6354,297.8536,-0.014139,-0.00722229,0.0,0 STARLINK-3720,1 52136U 22029BA  22158.58334491 -.00722229  00000-0 -14139-1 0  9992,2 52136  53.2176 107.8772 0001069  76.6354 297.8536 15.49085986  1301,6797.536,92.958,420.127,418.674,0.0
52136.0,STARLINK-3720,PAYLOAD,2022-06-07 22:00:00,15.48575626,0.0001209,53.2177,106.2876,64.2164,9.9135,-0.01437,-0.00721039,0.0,0 STARLINK-3720,1 52136U 22029BA  22158.91667824 -.00721039  00000-0 -14370-1 0  9993,2 52136  53.2177 106.2876 0001209  64.2164   9.9135 15.48575626  1309,6799.029,92.989,421.716,420.072,0.0
52136.0,STARLINK-3720,PAYLOAD,2022-06-08 06:00:02,15.48063399,0.0001453,53.2176,104.7011,52.5735,80.6487,-0.014557,-0.00717685,0.0,0 STARLINK-3720,1 52136U 22029BA  22159.25002315 -.00717685  00000-0 -14557-1 0  9998,2 52136  53.2176 104.7011 0001453  52.5735  80.6487 15.48063399 13990,6800.529,93.019,423.382,421.406,0.0
52136.0,STARLINK-3720,PAYLOAD,2022-06-08 14:00:01,15.47556063,0.000129,53.2175,103.1125,72.4694,119.1035,-0.014905,-0.0072156,0.0,0 STARLINK-3720,1 52136U 22029BA  22159.58334491 -.00721560  00000-0 -14905-1 0  9991,2 52136  53.2175 103.1125 0001290  72.4694 119.1035 15.47556063  1305,6802.015,93.05,424.757,423.002,0.0
52136.0,STARLINK-3720,PAYLOAD,2022-06-08 22:00:01,15.47045261,0.0001313,53.2176,101.5267,73.7101,175.7298,-0.015133,-0.00719792,0.0,0 STARLINK-3720,1 52136U 22029BA  22159.91668981 -.00719792  00000-0 -15133-1 0  9990,2 52136  53.2176 101.5267 0001313  73.7101 175.7298 15.47045261  1300,6803.512,93.081,426.27,424.484,0.0
52136.0,STARLINK-3720,PAYLOAD,2022-06-09 06:00:00,15.46534178,0.0001200999999999,53.2175,99.944,84.0124,222.5521,-0.015371,-0.00718328,0.0,0 STARLINK-3720,1 52136U 22029BA  22160.25001157 -.00718328  00000-0 -15371-1 0  9993,2 52136  53.2175  99.9440 0001201  84.0124 222.5521 15.46534178 14143,6805.011,93.111,427.693,426.059,0.0
52136.0,STARLINK-3720,PAYLOAD,2022-06-09 14:00:01,15.46025802,0.0001094,53.2175,98.359,71.9217,291.2201,-0.015713,-0.00721238,0.0,0 STARLINK-3720,1 52136U 22029BA  22160.58334491 -.00721238  00000-0 -15713-1 0  9993,2 52136  53.2175  98.3590 0001094  71.9217 291.2201 15.46025802  1301,6806.503000000002,93.142,429.112,427.62300000000016,0.0
52136.0,STARLINK-3720,PAYLOAD,2022-06-09 22:00:00,15.45516647,0.000114,53.2174,96.7771,71.1029,348.0024,-0.016016,-0.00722259,0.0,0 STARLINK-3720,1 52136U 22029BA  22160.91667824 -.00722259  00000-0 -16016-1 0  9990,2 52136  53.2174  96.7771 0001140  71.1029 348.0024 15.45516647  1303,6807.996999999999,93.173,430.639,429.086,0.0
52136.0,STARLINK-3720,PAYLOAD,2022-06-10 06:00:02,15.45001787,0.0001212,53.2173,95.1974,71.0227,43.4991,-0.016104,-0.00714127,0.0,0 STARLINK-3720,1 52136U 22029BA  22161.25002315 -.00714127  00000-0 -16104-1 0  9999,2 52136  53.2173  95.1974 0001212  71.0227  43.4991 15.45001787 14306,6809.51,93.204,432.2,430.55,0.0
52136.0,STARLINK-3720,PAYLOAD,2022-06-10 14:00:01,15.4449446,0.0001322,53.2174,93.6159,67.0094,102.1867,-0.016489,-0.00718279,0.0,0 STARLINK-3720,1 52136U 22029BA  22161.58334491 -.00718279  00000-0 -16489-1 0  9996,2 52136  53.2174  93.6159 0001322  67.0094 102.1867 15.44494460  1308,6811.001,93.234,433.766,431.965,0.0
52136.0,STARLINK-3720,PAYLOAD,2022-06-10 22:00:00,15.43984376,0.0001375,53.2175,92.0378,72.4019,150.9195,-0.016773,-0.00718055,0.0,0 STARLINK-3720,1 52136U 22029BA  22161.91667824 -.00718055  00000-0 -16773-1 0  9990,2 52136  53.2175  92.0378 0001375  72.4019 150.9195 15.43984376  1304,6812.501,93.265,435.30300000000005,433.429,0.0
52136.0,STARLINK-3720,PAYLOAD,2022-06-11 06:00:00,15.43472635,0.0001283,53.2174,90.462,72.435,204.3988,-0.0169759999999999,-0.00714465,0.0,0 STARLINK-3720,1 52136U 22029BA  22162.25001157 -.00714465  00000-0 -16976-1 0  9995,2 52136  53.2174  90.4620 0001283  72.4350 204.3988 15.43472635 14455,6814.007,93.296,436.746,434.997,0.0
52136.0,STARLINK-3720,PAYLOAD,2022-06-11 22:00:00,15.42456572,0.000122,53.2177,87.31,59.8541,322.1666,-0.017759,-0.00721562,0.0,0 STARLINK-3720,1 52136U 22029BA  22162.91667824 -.00721562  00000-0 -17759-1 0  9993,2 52136  53.2177  87.3100 0001220  59.8541 322.1666 15.42456572  1301,6816.999,93.358,439.695,438.032,0.0
52136.0,STARLINK-3720,PAYLOAD,2022-06-12 04:00:00,15.42073506,0.0001232,53.2176,86.1309,71.1837,259.6498,-0.017957,-0.00720348,0.0,0 STARLINK-3720,1 52136U 22029BA  22163.16667824 -.00720348  00000-0 -17957-1 0  9992,2 52136  53.2176  86.1309 0001232  71.1837 259.6498 15.42073506 14590,6818.128000000002,93.381,440.833,439.153,0.0
52136.0,STARLINK-3720,PAYLOAD,2022-06-12 14:00:01,15.41433959,0.0001333,53.2174,84.1634,57.5769,67.1816,-0.018255,-0.00717023,0.0,0 STARLINK-3720,1 52136U 22029BA  22163.58334491 -.00717023  00000-0 -18255-1 0  9997,2 52136  53.2174  84.1634 0001333  57.5769  67.1816 15.41433959  1303,6820.013000000001,93.42,442.787,440.969,0.0
52136.0,STARLINK-3720,PAYLOAD,2022-06-12 22:00:00,15.40924593,0.0001465,53.2177,82.59299999999998,57.1959,118.0107,-0.018596,-0.00718018,0.0,0 STARLINK-3720,1 52136U 22029BA  22163.91667824 -.00718018  00000-0 -18596-1 0  9996,2 52136  53.2177  82.5930 0001465  57.1959 118.0107 15.40924593  1307,6821.516,93.45,444.381,442.382,0.0
52136.0,STARLINK-3720,PAYLOAD,2022-06-13 06:00:02,15.40412532,0.0001324,53.2172,81.024,75.6069,149.4999,-0.018791,-0.00713599,0.0,0 STARLINK-3720,1 52136U 22029BA  22164.25002315 -.00713599  00000-0 -18791-1 0  9998,2 52136  53.2172  81.0240 0001324  75.6069 149.4999 15.40412532 14767,6823.028,93.481,445.796,443.99,0.0
52136.0,STARLINK-3720,PAYLOAD,2022-06-13 14:00:01,15.39903712,0.0001268,53.2175,79.4534,72.0568,202.2102,-0.019184,-0.00716105,0.0,0 STARLINK-3720,1 52136U 22029BA  22164.58334491 -.00716105  00000-0 -19184-1 0  9990,2 52136  53.2175  79.4534 0001268  72.0568 202.2102 15.39903712  1302,6824.531,93.512,447.261,445.53,0.0
52136.0,STARLINK-3720,PAYLOAD,2022-06-13 22:00:00,15.39395448,0.0001286999999999,53.2177,77.8869,62.4563,260.4199,-0.019586,-0.00718705,0.0,0 STARLINK-3720,1 52136U 22029BA  22164.91667824 -.00718705  00000-0 -19586-1 0  9990,2 52136  53.2177  77.8869 0001287  62.4563 260.4199 15.39395448  1309,6826.033,93.543,448.776,447.019,0.0
52136.0,STARLINK-3720,PAYLOAD,2022-06-14 06:00:00,15.38884918,0.0001268,53.2173,76.3216,54.5676,316.3055,-0.019863,-0.00716843,0.0,0 STARLINK-3720,1 52136U 22029BA  22165.25001157 -.00716843  00000-0 -19863-1 0  9998,2 52136  53.2173  76.3216 0001268  54.5676 316.3055 15.38884918 14918,6827.543000000002,93.574,450.273,448.542,0.0
